STARLINK-31174          
1 58808U 24012X   26068.31712500 -.00000351  00000+0 -32374-5 0  9993
2 58808  42.9960 166.9497 0000575 271.4466  88.6319 15.27564523121188
YAOGAN-43 01D           
1 60461U 24148D   26068.43560480  .00010676  00000+0  37766-3 0  9999
2 60461  35.0010  61.7102 0002556 326.2473  33.8080 15.28369377 87008
